[{"OBJECT_NAME":"DAQI 1","OBJECT_ID":"2022-039A","EPOCH":"2026-03-09T22:54:20.613600","MEAN_MOTION":14.57656651,"ECCENTRICITY":0.00031421,"INCLINATION":98.1406,"RA_OF_ASC_NODE":9.9086,"ARG_OF_PERICENTER":179.0073,"MEAN_ANOMALY":181.1133,"EPHEMERIS_TYPE":0,"CLASSIFICATION_TYPE":"U","NORAD_CAT_ID":52257,"ELEMENT_SET_NO":999,"REV_AT_EPOCH":20748,"BSTAR":0.00015776959,"MEAN_MOTION_DOT":6.74e-6,"MEAN_MOTION_DDOT":0},{"OBJECT_NAME":"CZ-6A DEB","OBJECT_ID":"2024-140MB","EPOCH":"2026-03-09T13:42:08.417664","MEAN_MOTION":14.64917149,"ECCENTRICITY":0.0041998,"INCLINATION":88.9463,"RA_OF_ASC_NODE":279.5369,"ARG_OF_PERICENTER":327.5297,"MEAN_ANOMALY":32.3334,"EPHEMERIS_TYPE":0,"CLASSIFICATION_TYPE":"U","NORAD_CAT_ID":60976,"ELEMENT_SET_NO":999,"REV_AT_EPOCH":8213,"BSTAR":0.0027346,"MEAN_MOTION_DOT":0.00014845,"MEAN_MOTION_DDOT":0}]
